STARLINK-4727           
1 53803U 22111AG  26068.80574601  .00004186  00000+0  28073-3 0  9990
2 53803  53.2157 248.6456 0001501  56.7960 303.3176 15.08872565194047
SEDNA-2                 
1 63153U 25009DQ  26068.79893845  .00008085  00000+0  49393-3 0  9990
2 63153  97.4615 144.8075 0010309  53.0260 307.1912 15.10492622 63116
